{"type": "FeatureCollection", "features": [{"type": "Feature", "properties": {"norad_id": 24946, "name": "IRIDIUM 33", "group": "iridium-33-debris", "lat": -11.873588692762166, "lon": 71.4262044341387, "alt_km": 780.9904161963423, "timestamp": "2025-12-03T06:58:43.626243+00:00", "meta": {"OBJECT_NAME": "IRIDIUM 33", "OBJECT_ID": "1997-051C", "EPOCH": "2025-12-02T19:19:10.562304", "MEAN_MOTION": 14.35025235, "ECCENTRICITY": 0.000608, "INCLINATION": 86.3871, "RA_OF_ASC_NODE": 72.3912, "ARG_OF_PERICENTER": 238.9284, "MEAN_ANOMALY": 121.1316, "EPHEMERIS_TYPE": 0, "CLASSIFICATION_TYPE": "U", "NORAD_CAT_ID": 24946, "ELEMENT_SET_NO": 999, "REV_AT_EPOCH": 47692, "BSTAR": 0.00016704, "MEAN_MOTION_DOT": 4.95e-06, "MEAN_MOTION_DDOT": 0}, "tle": {"line1": "1 24946U 97051C   25336.80498336  .00000495  00000+0  16704-3 0  9995", "line2": "2 24946  86.3871  72.3912 0006080 238.9284 121.1316 14.35025235476927"}}, "geometry": {"type": "Point", "coordinates": [71.4262044341387, -11.873588692762166]}}, {"type": "Feature", "properties": {"norad_id": 33773, "name": "IRIDIUM 33 DEB", "group": "iridium-33-debris", "lat": 26.11279738527047, "lon": 66.36048076022516, "alt_km": 754.0491480604569, "timestamp": "2025-12-03T06:58:43.626288+00:00", "meta": {"OBJECT_NAME": "IRIDIUM 33 DEB", "OBJECT_ID": "1997-051L", "EPOCH": "2025-12-02T19:12:34.458048", "MEAN_MOTION": 14.43219569, "ECCENTRICITY": 0.0011431, "INCLINATION": 86.4014, "RA_OF_ASC_NODE": 64.8005, "ARG_OF_PERICENTER": 177.1469, "MEAN_ANOMALY": 182.9799, "EPHEMERIS_TYPE": 0, "CLASSIFICATION_TYPE": "U", "NORAD_CAT_ID": 33773, "ELEMENT_SET_NO": 999, "REV_AT_EPOCH": 88204, "BSTAR": 0.00045844, "MEAN_MOTION_DOT": 1.562e-05, "MEAN_MOTION_DDOT": 0}, "tle": {"line1": "1 33773U 97051L   25336.80039882  .00001562  00000+0  45844-3 0  9993", "line2": "2 33773  86.4014  64.8005 0011431 177.1469 182.9799 14.43219569882047"}}, "geometry": {"type": "Point", "coordinates": [66.36048076022516, 26.11279738527047]}}, {"type": "Feature", "properties": {"norad_id": 33775, "name": "IRIDIUM 33 DEB", "group": "iridium-33-debris", "lat": 9.324429233704056, "lon": -127.01136451662185, "alt_km": 746.4434328654397, "timestamp": "2025-12-03T06:58:43.626305+00:00", "meta": {"OBJECT_NAME": "IRIDIUM 33 DEB", "OBJECT_ID": "1997-051N", "EPOCH": "2025-12-02T17:25:17.799744", "MEAN_MOTION": 14.41431492, "ECCENTRICITY": 0.0013145, "INCLINATION": 86.3644, "RA_OF_ASC_NODE": 53.8278, "ARG_OF_PERICENTER": 186.595, "MEAN_ANOMALY": 294.584, "EPHEMERIS_TYPE": 0, "CLASSIFICATION_TYPE": "U", "NORAD_CAT_ID": 33775, "ELEMENT_SET_NO": 999, "REV_AT_EPOCH": 87996, "BSTAR": 0.00046193, "MEAN_MOTION_DOT": 1.518e-05, "MEAN_MOTION_DDOT": 0}, "tle": {"line1": "1 33775U 97051N   25336.72590046  .00001518  00000+0  46193-3 0  9999", "line2": "2 33775  86.3644  53.8278 0013145 186.5950 294.5840 14.41431492879963"}}, "geometry": {"type": "Point", "coordinates": [-127.01136451662185, 9.324429233704056]}}, {"type": "Feature", "properties": {"norad_id": 33776, "name": "IRIDIUM 33 DEB", "group": "iridium-33-debris", "lat": 29.940814908501846, "lon": -97.3323905197737, "alt_km": 760.2613326652936, "timestamp": "2025-12-03T06:58:43.626319+00:00", "meta": {"OBJECT_NAME": "IRIDIUM 33 DEB", "OBJECT_ID": "1997-051P", "EPOCH": "2025-12-02T19:07:05.354400", "MEAN_MOTION": 14.38202771, "ECCENTRICITY": 0.0013307, "INCLINATION": 86.4037, "RA_OF_ASC_NODE": 84.951, "ARG_OF_PERICENTER": 224.8807, "MEAN_ANOMALY": 248.0842, "EPHEMERIS_TYPE": 0, "CLASSIFICATION_TYPE": "U", "NORAD_CAT_ID": 33776, "ELEMENT_SET_NO": 999, "REV_AT_EPOCH": 87939, "BSTAR": 0.00041731, "MEAN_MOTION_DOT": 1.287e-05, "MEAN_MOTION_DDOT": 0}, "tle": {"line1": "1 33776U 97051P   25336.79658975  .00001287  00000+0  41731-3 0  9999", "line2": "2 33776  86.4037  84.9510 0013307 224.8807 248.0842 14.38202771879397"}}, "geometry": {"type": "Point", "coordinates": [-97.3323905197737, 29.940814908501846]}}, {"type": "Feature", "properties": {"norad_id": 33777, "name": "IRIDIUM 33 DEB", "group": "iridium-33-debris", "lat": 68.55489205031493, "lon": 48.58742735376712, "alt_km": 703.7728253941968, "timestamp": "2025-12-03T06:58:43.626348+00:00", "meta": {"OBJECT_NAME": "IRIDIUM 33 DEB", "OBJECT_ID": "1997-051Q", "EPOCH": "2025-12-02T17:27:48.977280", "MEAN_MOTION": 14.55486126, "ECCENTRICITY": 0.0005175, "INCLINATION": 86.3801, "RA_OF_ASC_NODE": 39.5578, "ARG_OF_PERICENTER": 296.1444, "MEAN_ANOMALY": 63.9231, "EPHEMERIS_TYPE": 0, "CLASSIFICATION_TYPE": "U", "NORAD_CAT_ID": 33777, "ELEMENT_SET_NO": 999, "REV_AT_EPOCH": 88388, "BSTAR": 0.0012601, "MEAN_MOTION_DOT": 5.503e-05, "MEAN_MOTION_DDOT": 0}, "tle": {"line1": "1 33777U 97051Q   25336.72765020  .00005503  00000+0  12601-2 0  9991", "line2": "2 33777  86.3801  39.5578 0005175 296.1444  63.9231 14.55486126883881"}}, "geometry": {"type": "Point", "coordinates": [48.58742735376712, 68.55489205031493]}}, {"type": "Feature", "properties": {"norad_id": 33850, "name": "IRIDIUM 33 DEB", "group": "iridium-33-debris", "lat": 51.47316736960049, "lon": -150.36578970399447, "alt_km": 743.1818911265218, "timestamp": "2025-12-03T06:58:43.626362+00:00", "meta": {"OBJECT_NAME": "IRIDIUM 33 DEB", "OBJECT_ID": "1997-051T", "EPOCH": "2025-12-02T17:38:50.477280", "MEAN_MOTION": 14.42110015, "ECCENTRICITY": 0.0011152, "INCLINATION": 86.3425, "RA_OF_ASC_NODE": 34.4808, "ARG_OF_PERICENTER": 192.7319, "MEAN_ANOMALY": 293.717, "EPHEMERIS_TYPE": 0, "CLASSIFICATION_TYPE": "U", "NORAD_CAT_ID": 33850, "ELEMENT_SET_NO": 999, "REV_AT_EPOCH": 88008, "BSTAR": 0.00056376, "MEAN_MOTION_DOT": 1.873e-05, "MEAN_MOTION_DDOT": 0}, "tle": {"line1": "1 33850U 97051T   25336.73530645  .00001873  00000+0  56376-3 0  9991", "line2": "2 33850  86.3425  34.4808 0011152 192.7319 293.7170 14.42110015880080"}}, "geometry": {"type": "Point", "coordinates": [-150.36578970399447, 51.47316736960049]}}, {"type": "Feature", "properties": {"norad_id": 33853, "name": "IRIDIUM 33 DEB", "group": "iridium-33-debris", "lat": 6.364827736065934, "lon": 173.50864590514954, "alt_km": 900.4717252032824, "timestamp": "2025-12-03T06:58:43.626375+00:00", "meta": {"OBJECT_NAME": "IRIDIUM 33 DEB", "OBJECT_ID": "1997-051W", "EPOCH": "2025-12-02T11:59:57.631776", "MEAN_MOTION": 13.98950763, "ECCENTRICITY": 0.02068419, "INCLINATION": 86.0006, "RA_OF_ASC_NODE": 354.3022, "ARG_OF_PERICENTER": 267.47, "MEAN_ANOMALY": 248.1232, "EPHEMERIS_TYPE": 0, "CLASSIFICATION_TYPE": "U", "NORAD_CAT_ID": 33853, "ELEMENT_SET_NO": 999, "REV_AT_EPOCH": 85202, "BSTAR": 0.0027198294, "MEAN_MOTION_DOT": 4.731e-05, "MEAN_MOTION_DDOT": 0}, "tle": {"line1": "1 33853U 97051W   25336.49997259  .00004731  00000+0  27198-2 0  9990", "line2": "2 33853  86.0006 354.3022 0206841 267.4700 248.1232 13.98950763852020"}}, "geometry": {"type": "Point", "coordinates": [173.50864590514954, 6.364827736065934]}}, {"type": "Feature", "properties": {"norad_id": 33860, "name": "IRIDIUM 33 DEB", "group": "iridium-33-debris", "lat": -71.40977730273457, "lon": 20.587111663194584, "alt_km": 678.6322407608704, "timestamp": "2025-12-03T06:58:43.626387+00:00", "meta": {"OBJECT_NAME": "IRIDIUM 33 DEB", "OBJECT_ID": "1997-051AD", "EPOCH": "2025-12-02T10:04:20.166240", "MEAN_MOTION": 14.67141398, "ECCENTRICITY": 0.00087027, "INCLINATION": 86.3853, "RA_OF_ASC_NODE": 31.805, "ARG_OF_PERICENTER": 31.5096, "MEAN_ANOMALY": 338.9281, "EPHEMERIS_TYPE": 0, "CLASSIFICATION_TYPE": "U", "NORAD_CAT_ID": 33860, "ELEMENT_SET_NO": 999, "REV_AT_EPOCH": 88571, "BSTAR": 0.0015472239, "MEAN_MOTION_DOT": 8.725e-05, "MEAN_MOTION_DDOT": 0}, "tle": {"line1": "1 33860U 97051AD  25336.41967785  .00008725  00000+0  15472-2 0  9990", "line2": "2 33860  86.3853  31.8050 0008702  31.5096 338.9281 14.67141398885710"}}, "geometry": {"type": "Point", "coordinates": [20.587111663194584, -71.40977730273457]}}, {"type": "Feature", "properties": {"norad_id": 33862, "name": "IRIDIUM 33 DEB", "group": "iridium-33-debris", "lat": -72.8737239434203, "lon": -126.54960082723852, "alt_km": 704.7322030060777, "timestamp": "2025-12-03T06:58:43.626399+00:00", "meta": {"OBJECT_NAME": "IRIDIUM 33 DEB", "OBJECT_ID": "1997-051AF", "EPOCH": "2025-12-02T17:18:50.001120", "MEAN_MOTION": 14.69200192, "ECCENTRICITY": 0.0054058, "INCLINATION": 86.4104, "RA_OF_ASC_NODE": 41.9467, "ARG_OF_PERICENTER": 102.6087, "MEAN_ANOMALY": 20.7937, "EPHEMERIS_TYPE": 0, "CLASSIFICATION_TYPE": "U", "NORAD_CAT_ID": 33862, "ELEMENT_SET_NO": 999, "REV_AT_EPOCH": 88676, "BSTAR": 0.0016998, "MEAN_MOTION_DOT": 0.00010263, "MEAN_MOTION_DDOT": 0}, "tle": {"line1": "1 33862U 97051AF  25336.72141205  .00010263  00000+0  16998-2 0  9991", "line2": "2 33862  86.4104  41.9467 0054058 102.6087  20.7937 14.69200192886761"}}, "geometry": {"type": "Point", "coordinates": [-126.54960082723852, -72.8737239434203]}}, {"type": "Feature", "properties": {"norad_id": 33866, "name": "IRIDIUM 33 DEB", "group": "iridium-33-debris", "lat": 15.995975010024253, "lon": 98.09581897455331, "alt_km": 889.8877096165124, "timestamp": "2025-12-03T06:58:43.626411+00:00", "meta": {"OBJECT_NAME": "IRIDIUM 33 DEB", "OBJECT_ID": "1997-051AK", "EPOCH": "2025-12-02T19:41:05.013024", "MEAN_MOTION": 14.25216056, "ECCENTRICITY": 0.0113612, "INCLINATION": 86.2996, "RA_OF_ASC_NODE": 97.2319, "ARG_OF_PERICENTER": 193.0335, "MEAN_ANOMALY": 290.2522, "EPHEMERIS_TYPE": 0, "CLASSIFICATION_TYPE": "U", "NORAD_CAT_ID": 33866, "ELEMENT_SET_NO": 999, "REV_AT_EPOCH": 86669, "BSTAR": 0.00085077, "MEAN_MOTION_DOT": 2.157e-05, "MEAN_MOTION_DDOT": 0}, "tle": {"line1": "1 33866U 97051AK  25336.82019691  .00002157  00000+0  85077-3 0  9997", "line2": "2 33866  86.2996  97.2319 0113612 193.0335 290.2522 14.25216056866696"}}, "geometry": {"type": "Point", "coordinates": [98.09581897455331, 15.995975010024253]}}]}